{
  "norad_id": 66858,
  "name": "STARLINK-35118",
  "history": [
    {
      "epoch": "2026-03-28T17:05:34.363392Z",
      "apogee_km": 483.7741211069524,
      "perigee_km": 482.13706441431987,
      "latitude_deg": -1.9050993047231667e-06,
      "longitude_deg": 153.61730172995328,
      "height_km": 482.5865736063531,
      "semi_major_axis_km": 6861.092592760636,
      "eccentricity": 0.0001193,
      "inclination_deg": 42.9989,
      "raan_deg": 236.1392,
      "arg_perigee_deg": 280.2339,
      "mean_anomaly_deg": 79.8378,
      "mean_motion_rev_day": 15.27611227
    },
    {
      "epoch": "2026-03-29T02:30:30.805344Z",
      "apogee_km": 483.54233070927967,
      "perigee_km": 482.4225960128597,
      "latitude_deg": -1.2469193765432534e-05,
      "longitude_deg": 9.781827436960098,
      "height_km": 482.73531986252397,
      "semi_major_axis_km": 6861.119463361069,
      "eccentricity": 8.16e-05,
      "inclination_deg": 43.0005,
      "raan_deg": 233.9256,
      "arg_perigee_deg": 272.395,
      "mean_anomaly_deg": 87.6808,
      "mean_motion_rev_day": 15.27602253
    },
    {
      "epoch": "2026-03-29T02:30:30.806208Z",
      "apogee_km": 483.5424679316693,
      "perigee_km": 482.42245879047005,
      "latitude_deg": -1.0898071996135932e-05,
      "longitude_deg": 9.781825502585594,
      "height_km": 482.7353141290748,
      "semi_major_axis_km": 6861.119463361069,
      "eccentricity": 8.162e-05,
      "inclination_deg": 43.0005,
      "raan_deg": 233.9256,
      "arg_perigee_deg": 272.395,
      "mean_anomaly_deg": 87.6808,
      "mean_motion_rev_day": 15.27602253
    },
    {
      "epoch": "2026-03-30T09:53:36.993408Z",
      "apogee_km": 483.882555091418,
      "perigee_km": 481.9030107784456,
      "latitude_deg": -3.304253690951327e-05,
      "longitude_deg": -109.66761546560635,
      "height_km": 482.78534599868544,
      "semi_major_axis_km": 6861.029782934932,
      "eccentricity": 0.00014426,
      "inclination_deg": 43.0013,
      "raan_deg": 226.5409,
      "arg_perigee_deg": 263.2866,
      "mean_anomaly_deg": 96.7821,
      "mean_motion_rev_day": 15.27632204
    },
    {
      "epoch": "2026-03-30T16:10:15.163968Z",
      "apogee_km": 483.8036712377043,
      "perigee_km": 482.4503555237052,
      "latitude_deg": 1.3939165475660477e-05,
      "longitude_deg": 154.4372926345547,
      "height_km": 482.9395612805898,
      "semi_major_axis_km": 6861.2640133807045,
      "eccentricity": 9.862e-05,
      "inclination_deg": 43.0035,
      "raan_deg": 225.0626,
      "arg_perigee_deg": 266.9659,
      "mean_anomaly_deg": 93.108,
      "mean_motion_rev_day": 15.27553979
    },
    {
      "epoch": "2026-03-31T15:42:37.947168Z",
      "apogee_km": 484.1487381834404,
      "perigee_km": 482.06978056684966,
      "latitude_deg": -1.6816159290436713e-05,
      "longitude_deg": 154.83579156694023,
      "height_km": 482.75985629556254,
      "semi_major_axis_km": 6861.246259375144,
      "eccentricity": 0.0001515,
      "inclination_deg": 43.0002,
      "raan_deg": 219.5228,
      "arg_perigee_deg": 276.9752,
      "mean_anomaly_deg": 83.0927,
      "mean_motion_rev_day": 15.27559908
    },
    {
      "epoch": "2026-04-01T15:14:58.300800Z",
      "apogee_km": 484.03728712511383,
      "perigee_km": 481.8623226079717,
      "latitude_deg": -1.0218382865196138e-05,
      "longitude_deg": 155.2436812211552,
      "height_km": 482.5235382067052,
      "semi_major_axis_km": 6861.0868048665425,
      "eccentricity": 0.0001585,
      "inclination_deg": 43.0006,
      "raan_deg": 213.9822,
      "arg_perigee_deg": 280.7687,
      "mean_anomaly_deg": 79.2986,
      "mean_motion_rev_day": 15.2761316
    },
    {
      "epoch": "2026-04-02T16:21:27.578016Z",
      "apogee_km": 483.9294694716027,
      "perigee_km": 481.943874750893,
      "latitude_deg": -4.400628274020257e-05,
      "longitude_deg": 131.68570335151824,
      "height_km": 482.8115105847196,
      "semi_major_axis_km": 6861.073672111247,
      "eccentricity": 0.0001447,
      "inclination_deg": 43.0011,
      "raan_deg": 208.0774,
      "arg_perigee_deg": 264.3354,
      "mean_anomaly_deg": 95.7332,
      "mean_motion_rev_day": 15.27617546
    },
    {
      "epoch": "2026-04-02T16:21:27.578880Z",
      "apogee_km": 483.9295380823387,
      "perigee_km": 481.9438061401561,
      "latitude_deg": -4.323387243767572e-05,
      "longitude_deg": 131.68580056537712,
      "height_km": 482.8115173570012,
      "semi_major_axis_km": 6861.073672111247,
      "eccentricity": 0.00014471,
      "inclination_deg": 43.0011,
      "raan_deg": 208.0775,
      "arg_perigee_deg": 264.3354,
      "mean_anomaly_deg": 95.7332,
      "mean_motion_rev_day": 15.27617546
    },
    {
      "epoch": "2026-04-03T15:53:49.576704Z",
      "apogee_km": 484.2651259643053,
      "perigee_km": 481.9185856956119,
      "latitude_deg": 1.263571058767867e-05,
      "longitude_deg": 132.0868721104185,
      "height_km": 482.5323168597065,
      "semi_major_axis_km": 6861.228855829959,
      "eccentricity": 0.000171,
      "inclination_deg": 43.0005,
      "raan_deg": 202.5369,
      "arg_perigee_deg": 286.6687,
      "mean_anomaly_deg": 73.3977,
      "mean_motion_rev_day": 15.2756572
    },
    {
      "epoch": "2026-04-04T15:26:10.124736Z",
      "apogee_km": 483.6935829893773,
      "perigee_km": 481.9838278435882,
      "latitude_deg": -1.2324601394000714e-05,
      "longitude_deg": 132.4959139864329,
      "height_km": 482.4043981775432,
      "semi_major_axis_km": 6860.975705416483,
      "eccentricity": 0.0001246,
      "inclination_deg": 42.9985,
      "raan_deg": 196.9983,
      "arg_perigee_deg": 284.2689,
      "mean_anomaly_deg": 75.8024,
      "mean_motion_rev_day": 15.27650265
    }
  ]
}